STARLINK-5879           
1 57153U 23090BE  26068.58185044  .00000116  00000+0  23686-4 0  9998
2 57153  43.0021 249.4964 0001355 275.3502  84.7185 15.02533520150194
QPS-SAR-8 (AMATERU-IV)  
1 60542U 24149CC  26068.70418071  .00008268  00000+0  61811-3 0  9990
2 60542  97.6699 148.7511 0003873  93.1500 267.0168 15.03026697 85328
