[{"OBJECT_NAME":"STARLINK-5879","OBJECT_ID":"2023-090BE","EPOCH":"2026-03-09T13:57:51.878016","MEAN_MOTION":15.0253352,"ECCENTRICITY":0.0001355,"INCLINATION":43.0021,"RA_OF_ASC_NODE":249.4964,"ARG_OF_PERICENTER":275.3502,"MEAN_ANOMALY":84.7185,"EPHEMERIS_TYPE":0,"CLASSIFICATION_TYPE":"U","NORAD_CAT_ID":57153,"ELEMENT_SET_NO":999,"REV_AT_EPOCH":15019,"BSTAR":2.3686e-5,"MEAN_MOTION_DOT":1.16e-6,"MEAN_MOTION_DDOT":0},{"OBJECT_NAME":"QPS-SAR-8 (AMATERU-IV)","OBJECT_ID":"2024-149CC","EPOCH":"2026-03-09T16:54:01.213344","MEAN_MOTION":15.03026697,"ECCENTRICITY":0.0003873,"INCLINATION":97.6699,"RA_OF_ASC_NODE":148.7511,"ARG_OF_PERICENTER":93.15,"MEAN_ANOMALY":267.0168,"EPHEMERIS_TYPE":0,"CLASSIFICATION_TYPE":"U","NORAD_CAT_ID":60542,"ELEMENT_SET_NO":999,"REV_AT_EPOCH":8532,"BSTAR":0.00061811246,"MEAN_MOTION_DOT":8.268e-5,"MEAN_MOTION_DDOT":0}]
